[{"OBJECT_NAME":"STARLINK-11423 [DTC]","OBJECT_ID":"2024-209M","EPOCH":"2026-01-08T07:17:59.884512","MEAN_MOTION":15.69806895,"ECCENTRICITY":0.00013612,"INCLINATION":53.1568,"RA_OF_ASC_NODE":308.9444,"ARG_OF_PERICENTER":64.8326,"MEAN_ANOMALY":295.2833,"EPHEMERIS_TYPE":0,"CLASSIFICATION_TYPE":"U","NORAD_CAT_ID":61950,"ELEMENT_SET_NO":999,"REV_AT_EPOCH":6723,"BSTAR":0.0019073543,"MEAN_MOTION_DOT":0.00238195,"MEAN_MOTION_DDOT":0},{"OBJECT_NAME":"STARLINK-11395 [DTC]","OBJECT_ID":"2024-209N","EPOCH":"2026-01-08T07:10:55.862688","MEAN_MOTION":15.6980815,"ECCENTRICITY":0.00011769,"INCLINATION":53.1565,"RA_OF_ASC_NODE":308.9054,"ARG_OF_PERICENTER":114.7053,"MEAN_ANOMALY":245.4087,"EPHEMERIS_TYPE":0,"CLASSIFICATION_TYPE":"U","NORAD_CAT_ID":61951,"ELEMENT_SET_NO":999,"REV_AT_EPOCH":6719,"BSTAR":0.0018561379,"MEAN_MOTION_DOT":0.0023161,"MEAN_MOTION_DDOT":0},{"OBJECT_NAME":"STARLINK-32572","OBJECT_ID":"2024-209P","EPOCH":"2026-01-08T07:10:32.870784","MEAN_MOTION":15.30202938,"ECCENTRICITY":0.0001031,"INCLINATION":53.1564,"RA_OF_ASC_NODE":62.7124,"ARG_OF_PERICENTER":65.5466,"MEAN_ANOMALY":294.5643,"EPHEMERIS_TYPE":0,"CLASSIFICATION_TYPE":"U","NORAD_CAT_ID":61952,"ELEMENT_SET_NO":999,"REV_AT_EPOCH":6565,"BSTAR":0.00042291523,"MEAN_MOTION_DOT":0.00012188,"MEAN_MOTION_DDOT":0},{"OBJECT_NAME":"STARLINK-32585","OBJECT_ID":"2024-209Q","EPOCH":"2026-01-08T03:23:05.722944","MEAN_MOTION":15.30216389,"ECCENTRICITY":0.00018302,"INCLINATION":53.1596,"RA_OF_ASC_NODE":63.8574,"ARG_OF_PERICENTER":100.3614,"MEAN_ANOMALY":259.7593,"EPHEMERIS_TYPE":0,"CLASSIFICATION_TYPE":"U","NORAD_CAT_ID":61953,"ELEMENT_SET_NO":999,"REV_AT_EPOCH":6562,"BSTAR":0.00088402416,"MEAN_MOTION_DOT":0.00025928,"MEAN_MOTION_DDOT":0},{"OBJECT_NAME":"STARLINK-32574","OBJECT_ID":"2024-209R","EPOCH":"2026-01-08T03:38:17.578176","MEAN_MOTION":15.30216361,"ECCENTRICITY":0.00013437,"INCLINATION":53.159,"RA_OF_ASC_NODE":63.9232,"ARG_OF_PERICENTER":105.2597,"MEAN_ANOMALY":254.8552,"EPHEMERIS_TYPE":0,"CLASSIFICATION_TYPE":"U","NORAD_CAT_ID":61954,"ELEMENT_SET_NO":999,"REV_AT_EPOCH":6564,"BSTAR":0.00086520104,"MEAN_MOTION_DOT":0.00025366,"MEAN_MOTION_DDOT":0},{"OBJECT_NAME":"STARLINK-32583","OBJECT_ID":"2024-209S","EPOCH":"2026-01-08T03:13:58.922400","MEAN_MOTION":15.30205325,"ECCENTRICITY":0.00016948,"INCLINATION":53.1583,"RA_OF_ASC_NODE":63.8178,"ARG_OF_PERICENTER":89.845,"MEAN_ANOMALY":270.2745,"EPHEMERIS_TYPE":0,"CLASSIFICATION_TYPE":"U","NORAD_CAT_ID":61955,"ELEMENT_SET_NO":999,"REV_AT_EPOCH":6564,"BSTAR":0.0009087742,"MEAN_MOTION_DOT":0.00026657,"MEAN_MOTION_DDOT":0},{"OBJECT_NAME":"STARLINK-32273","OBJECT_ID":"2024-209T","EPOCH":"2026-01-08T07:18:08.963424","MEAN_MOTION":15.30218037,"ECCENTRICITY":9.714e-5,"INCLINATION":53.1577,"RA_OF_ASC_NODE":62.7421,"ARG_OF_PERICENTER":68.8664,"MEAN_ANOMALY":291.244,"EPHEMERIS_TYPE":0,"CLASSIFICATION_TYPE":"U","NORAD_CAT_ID":61956,"ELEMENT_SET_NO":999,"REV_AT_EPOCH":6565,"BSTAR":0.001069042,"MEAN_MOTION_DOT":0.00031455,"MEAN_MOTION_DDOT":0},{"OBJECT_NAME":"STARLINK-32359","OBJECT_ID":"2024-209U","EPOCH":"2026-01-08T07:47:00.866112","MEAN_MOTION":15.30225747,"ECCENTRICITY":7.259e-5,"INCLINATION":53.1606,"RA_OF_ASC_NODE":62.8682,"ARG_OF_PERICENTER":126.5154,"MEAN_ANOMALY":233.5914,"EPHEMERIS_TYPE":0,"CLASSIFICATION_TYPE":"U","NORAD_CAT_ID":61957,"ELEMENT_SET_NO":999,"REV_AT_EPOCH":6567,"BSTAR":0.00099808337,"MEAN_MOTION_DOT":0.00029341,"MEAN_MOTION_DDOT":0},{"OBJECT_NAME":"STARLINK-32566","OBJECT_ID":"2024-209V","EPOCH":"2026-01-08T07:13:35.388192","MEAN_MOTION":15.30220785,"ECCENTRICITY":0.00017214,"INCLINATION":53.1587,"RA_OF_ASC_NODE":62.7252,"ARG_OF_PERICENTER":113.0103,"MEAN_ANOMALY":247.108,"EPHEMERIS_TYPE":0,"CLASSIFICATION_TYPE":"U","NORAD_CAT_ID":61958,"ELEMENT_SET_NO":999,"REV_AT_EPOCH":6567,"BSTAR":0.00025920197,"MEAN_MOTION_DOT":7.33e-5,"MEAN_MOTION_DDOT":0},{"OBJECT_NAME":"STARLINK-32499","OBJECT_ID":"2024-210A","EPOCH":"2026-01-08T03:15:00.868608","MEAN_MOTION":15.27583563,"ECCENTRICITY":0.00018961,"INCLINATION":43.0043,"RA_OF_ASC_NODE":161.4076,"ARG_OF_PERICENTER":270.6365,"MEAN_ANOMALY":89.427,"EPHEMERIS_TYPE":0,"CLASSIFICATION_TYPE":"U","NORAD_CAT_ID":61959,"ELEMENT_SET_NO":999,"REV_AT_EPOCH":6566,"BSTAR":0.00072877517,"MEAN_MOTION_DOT":0.00019848,"MEAN_MOTION_DDOT":0},{"OBJECT_NAME":"STARLINK-32372","OBJECT_ID":"2024-210B","EPOCH":"2026-01-08T03:26:06.818208","MEAN_MOTION":15.27604712,"ECCENTRICITY":0.00024526,"INCLINATION":43.0035,"RA_OF_ASC_NODE":161.4624,"ARG_OF_PERICENTER":268.1717,"MEAN_ANOMALY":91.8854,"EPHEMERIS_TYPE":0,"CLASSIFICATION_TYPE":"U","NORAD_CAT_ID":61960,"ELEMENT_SET_NO":999,"REV_AT_EPOCH":6552,"BSTAR":0.0012167937,"MEAN_MOTION_DOT":0.000334,"MEAN_MOTION_DDOT":0},{"OBJECT_NAME":"STARLINK-32452","OBJECT_ID":"2024-210C","EPOCH":"2026-01-07T10:24:44.427456","MEAN_MOTION":15.27594432,"ECCENTRICITY":2.073e-5,"INCLINATION":42.997,"RA_OF_ASC_NODE":158.678,"ARG_OF_PERICENTER":82.8792,"MEAN_ANOMALY":277.2083,"EPHEMERIS_TYPE":0,"CLASSIFICATION_TYPE":"U","NORAD_CAT_ID":61961,"ELEMENT_SET_NO":999,"REV_AT_EPOCH":6562,"BSTAR":0.00086652242,"MEAN_MOTION_DOT":0.0002367,"MEAN_MOTION_DDOT":0},{"OBJECT_NAME":"STARLINK-32458","OBJECT_ID":"2024-210D","EPOCH":"2026-01-07T16:05:45.445632","MEAN_MOTION":15.27591827,"ECCENTRICITY":3.343e-5,"INCLINATION":42.9983,"RA_OF_ASC_NODE":150.0851,"ARG_OF_PERICENTER":257.3804,"MEAN_ANOMALY":102.701,"EPHEMERIS_TYPE":0,"CLASSIFICATION_TYPE":"U","NORAD_CAT_ID":61962,"ELEMENT_SET_NO":999,"REV_AT_EPOCH":6574,"BSTAR":0.00072678494,"MEAN_MOTION_DOT":0.00019798,"MEAN_MOTION_DDOT":0},{"OBJECT_NAME":"STARLINK-32487","OBJECT_ID":"2024-210E","EPOCH":"2026-01-07T10:52:57.324864","MEAN_MOTION":15.27600047,"ECCENTRICITY":2.598e-5,"INCLINATION":42.9975,"RA_OF_ASC_NODE":165.7399,"ARG_OF_PERICENTER":268.5928,"MEAN_ANOMALY":91.4894,"EPHEMERIS_TYPE":0,"CLASSIFICATION_TYPE":"U","NORAD_CAT_ID":61963,"ELEMENT_SET_NO":999,"REV_AT_EPOCH":6554,"BSTAR":0.001075581,"MEAN_MOTION_DOT":0.00029472,"MEAN_MOTION_DDOT":0},{"OBJECT_NAME":"STARLINK-32513","OBJECT_ID":"2024-210F","EPOCH":"2026-01-07T15:49:06.465504","MEAN_MOTION":15.27576564,"ECCENTRICITY":0.00034598,"INCLINATION":43.0064,"RA_OF_ASC_NODE":150.0007,"ARG_OF_PERICENTER":283.645,"MEAN_ANOMALY":76.4016,"EPHEMERIS_TYPE":0,"CLASSIFICATION_TYPE":"U","NORAD_CAT_ID":61964,"ELEMENT_SET_NO":999,"REV_AT_EPOCH":6574,"BSTAR":0.00087068688,"MEAN_MOTION_DOT":0.00023774,"MEAN_MOTION_DDOT":0},{"OBJECT_NAME":"STARLINK-32514","OBJECT_ID":"2024-210G","EPOCH":"2026-01-08T02:11:51.387936","MEAN_MOTION":15.27590333,"ECCENTRICITY":0.00020933,"INCLINATION":42.9995,"RA_OF_ASC_NODE":155.0098,"ARG_OF_PERICENTER":270.9882,"MEAN_ANOMALY":89.073,"EPHEMERIS_TYPE":0,"CLASSIFICATION_TYPE":"U","NORAD_CAT_ID":61965,"ELEMENT_SET_NO":999,"REV_AT_EPOCH":6572,"BSTAR":0.0010834883,"MEAN_MOTION_DOT":0.00029683,"MEAN_MOTION_DDOT":0}]
