STARLINK-11423 [DTC]    
1 61950U 24209M   26008.30416533  .00238195  00000+0  19074-2 0  9999
2 61950  53.1568 308.9444 0001361  64.8326 295.2833 15.69806895 67230
STARLINK-11395 [DTC]    
1 61951U 24209N   26008.29925767  .00231610  00000+0  18561-2 0  9997
2 61951  53.1565 308.9054 0001176 114.7053 245.4087 15.69808150 67190
STARLINK-32572          
1 61952U 24209P   26008.29899156  .00012188  00000+0  42292-3 0  9996
2 61952  53.1564  62.7124 0001031  65.5466 294.5643 15.30202938 65656
STARLINK-32585          
1 61953U 24209Q   26008.14103846  .00025928  00000+0  88402-3 0  9994
2 61953  53.1596  63.8574 0001830 100.3614 259.7593 15.30216389 65622
STARLINK-32574          
1 61954U 24209R   26008.15159234  .00025366  00000+0  86520-3 0  9993
2 61954  53.1590  63.9232 0001343 105.2597 254.8552 15.30216361 65645
STARLINK-32583          
1 61955U 24209S   26008.13470975  .00026657  00000+0  90877-3 0  9994
2 61955  53.1583  63.8178 0001694  89.8450 270.2745 15.30205325 65644
STARLINK-32273          
1 61956U 24209T   26008.30427041  .00031455  00000+0  10690-2 0  9996
2 61956  53.1577  62.7421 0000971  68.8664 291.2440 15.30218037 65658
STARLINK-32359          
1 61957U 24209U   26008.32431558  .00029341  00000+0  99808-3 0  9997
2 61957  53.1606  62.8682 0000725 126.5154 233.5914 15.30225747 65678
STARLINK-32566          
1 61958U 24209V   26008.30110403  .00007330  00000+0  25920-3 0  9997
2 61958  53.1587  62.7252 0001721 113.0103 247.1080 15.30220785 65673
STARLINK-32499          
1 61959U 24210A   26008.13542672  .00019848  00000+0  72878-3 0  9999
2 61959  43.0043 161.4076 0001896 270.6365  89.4270 15.27583563 65662
STARLINK-32372          
1 61960U 24210B   26008.14313447  .00033400  00000+0  12168-2 0  9993
2 61960  43.0035 161.4624 0002452 268.1717  91.8854 15.27604712 65526
STARLINK-32452          
1 61961U 24210C   26007.43384754  .00023670  00000+0  86652-3 0  9992
2 61961  42.9970 158.6780 0000207  82.8792 277.2083 15.27594432 65626
STARLINK-32458          
1 61962U 24210D   26007.67066488  .00019798  00000+0  72678-3 0  9999
2 61962  42.9983 150.0851 0000334 257.3804 102.7010 15.27591827 65740
STARLINK-32487          
1 61963U 24210E   26007.45344126  .00029472  00000+0  10756-2 0  9992
2 61963  42.9975 165.7399 0000259 268.5928  91.4894 15.27600047 65546
STARLINK-32513          
1 61964U 24210F   26007.65910261  .00023774  00000+0  87069-3 0  9995
2 61964  43.0064 150.0007 0003459 283.6450  76.4016 15.27576564 65741
STARLINK-32514          
1 61965U 24210G   26008.09156699  .00029683  00000+0  10835-2 0  9993
2 61965  42.9995 155.0098 0002093 270.9882  89.0730 15.27590333 65720
